QZS-1R                  
1 49336U 21096A   23288.78691095 -.00000182  00000+0  00000+0 0  9991
2 49336  35.4388  94.2795 0746530 270.0301  78.1348  1.00278915  7227
